NORAD_CAT_ID,OBJECT_NAME,OBJECT_TYPE,EPOCH,MEAN_MOTION,ECCENTRICITY,INCLINATION,RA_OF_ASC_NODE,ARG_OF_PERICENTER,MEAN_ANOMALY,BSTAR,MEAN_MOTION_DOT,MEAN_MOTION_DDOT,TLE_LINE0,TLE_LINE1,TLE_LINE2,SEMIMAJOR_AXIS,PERIOD,APOGEE,PERIGEE,DECAYED
52865.0,STARLINK-4274,PAYLOAD,2023-10-01 09:19:50,15.08848137,0.0001258,53.2176,60.839,93.5203,266.5933,7.4666e-05,9.01e-06,0.0,0 STARLINK-4274,1 52865U 22062AM  23274.38877604  .00000901  00000-0  74666-4 0  9992,2 52865  53.2176  60.8390 0001258  93.5203 266.5933 15.08848137 71520,6917.856,95.437,540.591,538.85,0.0
52865.0,STARLINK-4274,PAYLOAD,2023-10-01 17:16:45,15.088511,0.0001232,53.2176,59.3514,91.4321,268.6812,0.00011387,1.525e-05,0.0,0 STARLINK-4274,1 52865U 22062AM  23274.71997403  .00001525  00000-0  11387-3 0  9992,2 52865  53.2176  59.3514 0001232  91.4321 268.6812 15.08851100 71579,6917.846,95.437,540.564,538.859,0.0
52865.0,STARLINK-4274,PAYLOAD,2023-10-02 02:49:04,15.08840143,0.000136,53.2191,57.5626,96.8054,263.3093,4.7919e-05,4.75e-06,0.0,0 STARLINK-4274,1 52865U 22062AM  23275.11741670  .00000475  00000-0  47919-4 0  9994,2 52865  53.2191  57.5626 0001360  96.8054 263.3093 15.08840143 72124,6917.88,95.438,540.686,538.804,0.0
52865.0,STARLINK-4274,PAYLOAD,2023-10-02 18:42:56,15.08842624,0.0001401,53.2175,54.5933,87.4918,272.6234,7.1874e-05,8.56e-06,0.0,0 STARLINK-4274,1 52865U 22062AM  23275.77982039  .00000856  00000-0  71874-4 0  9992,2 52865  53.2175  54.5933 0001401  87.4918 272.6234 15.08842624 71737,6917.872,95.437,540.707,538.768,0.0
52865.0,STARLINK-4274,PAYLOAD,2023-10-03 09:01:24,15.08849761,0.0001404,53.2187,51.9152,101.1632,258.9518,0.00015229,2.137e-05,0.0,0 STARLINK-4274,1 52865U 22062AM  23276.37597572  .00002137  00000-0  15229-3 0  9998,2 52865  53.2187  51.9152 0001404 101.1632 258.9518 15.08849761 72310,6917.851,95.437,540.687,538.744,0.0
52865.0,STARLINK-4274,PAYLOAD,2023-10-03 15:22:57,15.08836176,0.0001647,53.2191,50.7264,83.9394,276.1786,-5.8012e-05,-1.211e-05,0.0,0 STARLINK-4274,1 52865U 22062AM  23276.64094308 -.00001211  00000-0 -58012-4 0  9999,2 52865  53.2191  50.7264 0001647  83.9394 276.1786 15.08836176 71861,6917.892,95.438,540.896,538.618,0.0
52865.0,STARLINK-4274,PAYLOAD,2023-10-03 16:58:20,15.08830098,0.0001409,53.2184,50.4307,74.5432,285.5716,-0.00010886,-2.02e-05,0.0,0 STARLINK-4274,1 52865U 22062AM  23276.70718660 -.00002020  00000-0 -10886-3 0  9995,2 52865  53.2184  50.4307 0001409  74.5432 285.5716 15.08830098 72363,6917.911,95.438,540.75,538.801,0.0
52865.0,STARLINK-4274,PAYLOAD,2023-10-04 13:38:21,15.08843616,0.0001558,53.2183,46.5646,70.295,289.821,0.00023447,3.446e-05,0.0,0 STARLINK-4274,1 52865U 22062AM  23277.56830320  .00003446  00000-0  23447-3 0  9996,2 52865  53.2183  46.5646 0001558  70.2950 289.8210 15.08843616 72004,6917.869,95.437,540.812,538.657,0.0
52865.0,STARLINK-4274,PAYLOAD,2023-10-04 18:24:29,15.08865158,0.0001486,53.2186,45.6687,95.7219,264.3943,0.00044877,6.866e-05,0.0,0 STARLINK-4274,1 52865U 22062AM  23277.76701108  .00006866  00000-0  44877-3 0  9998,2 52865  53.2186  45.6687 0001486  95.7219 264.3943 15.08865158 72525,6917.803,95.436,540.696,538.641,0.0
52865.0,STARLINK-4274,PAYLOAD,2023-10-05 08:42:59,15.08839048,0.0001485,53.2185,42.996,84.6296,275.4866,2.2773e-05,7.4e-07,0.0,0 STARLINK-4274,1 52865U 22062AM  23278.36318299  .00000074  00000-0  22773-4 0  9997,2 52865  53.2185  42.9960 0001485  84.6296 275.4866 15.08839048 72615,6917.883,95.438,540.776,538.721,0.0
52865.0,STARLINK-4274,PAYLOAD,2023-10-05 13:29:08,15.08841466,0.0001487,53.2182,42.1031,92.5444,267.5718,0.0001104,1.47e-05,0.0,0 STARLINK-4274,1 52865U 22062AM  23278.56190308  .00001470  00000-0  11040-3 0  9993,2 52865  53.2182  42.1031 0001487  92.5444 267.5718 15.08841466 72152,6917.876,95.437,540.77,538.712,0.0
52865.0,STARLINK-4274,PAYLOAD,2023-10-05 15:04:31,15.08844212,0.0001252,53.2179,41.8075,84.1345,275.9789,0.0002571,3.807e-05,0.0,0 STARLINK-4274,1 52865U 22062AM  23278.62814269  .00003807  00000-0  25710-3 0  9994,2 52865  53.2179  41.8075 0001252  84.1345 275.9789 15.08844212 72163,6917.868,95.437,540.599,538.866,0.0
52865.0,STARLINK-4274,PAYLOAD,2023-10-06 08:33:46,15.08831827,0.0001403,53.2184,38.5347,88.8972,271.2181,8.6516e-05,1.089e-05,0.0,0 STARLINK-4274,1 52865U 22062AM  23279.35679048  .00001089  00000-0  86516-4 0  9991,2 52865  53.2184  38.5347 0001403  88.8972 271.2181 15.08831827 72768,6917.905,95.438,540.741,538.8,0.0
52865.0,STARLINK-4274,PAYLOAD,2023-10-06 13:19:55,15.08837175,0.0001541,53.2183,37.6432,104.7568,255.3595,0.00046019,7.043e-05,0.0,0 STARLINK-4274,1 52865U 22062AM  23279.55550830  .00007043  00000-0  46019-3 0  9999,2 52865  53.2183  37.6432 0001541 104.7568 255.3595 15.08837175 72308,6917.889,95.438,540.82,538.688,0.0
52865.0,STARLINK-4274,PAYLOAD,2023-10-06 14:55:19,15.08842797,0.0001416,53.218,37.3471,93.2743,266.8411,0.00071112,0.00011048,0.0,0 STARLINK-4274,1 52865U 22062AM  23279.62174852  .00011048  00000-0  71112-3 0  9995,2 52865  53.2180  37.3471 0001416  93.2743 266.8411 15.08842797 72808,6917.872,95.437,540.716,538.757,0.0
52865.0,STARLINK-4274,PAYLOAD,2023-10-07 08:24:33,15.08837741,0.000143,53.2187,34.0789,101.578,258.5373,0.00014247,1.98e-05,0.0,0 STARLINK-4274,1 52865U 22062AM  23280.35039108  .00001980  00000-0  14247-3 0  9991,2 52865  53.2187  34.0789 0001430 101.5780 258.5373 15.08837741 72911,6917.887,95.438,540.742,538.763,0.0
52865.0,STARLINK-4274,PAYLOAD,2023-10-07 13:10:43,15.08840496,0.0001566,53.219,33.186,96.9788,263.1383,0.00018779,2.702e-05,0.0,0 STARLINK-4274,1 52865U 22062AM  23280.54911097  .00002702  00000-0  18779-3 0  9995,2 52865  53.2190  33.1860 0001566  96.9788 263.1383 15.08840496 72453,6917.879,95.438,540.827,538.661,0.0
52865.0,STARLINK-4274,PAYLOAD,2023-10-07 14:46:06,15.08844946,0.0001431,53.2184,32.8903,91.101,269.0146,0.00028962,4.325e-05,0.0,0 STARLINK-4274,1 52865U 22062AM  23280.61534985  .00004325  00000-0  28962-3 0  9998,2 52865  53.2184  32.8903 0001431  91.1010 269.0146 15.08844946 72463,6917.865,95.437,540.72,538.74,0.0
52865.0,STARLINK-4274,PAYLOAD,2023-10-08 13:01:30,15.08846811,0.0001327,53.2176,28.7233,86.3543,273.7601,0.00016428,2.328e-05,0.0,0 STARLINK-4274,1 52865U 22062AM  23281.54270960  .00002328  00000-0  16428-3 0  9996,2 52865  53.2176  28.7233 0001327  86.3543 273.7601 15.08846811 72602,6917.86,95.437,540.643,538.807,0.0
52865.0,STARLINK-4274,PAYLOAD,2023-10-08 14:36:53,15.08847724,0.0001378,53.2178,28.4252,81.232,278.8828,0.00021497,3.136e-05,0.0,0 STARLINK-4274,1 52865U 22062AM  23281.60894916  .00003136  00000-0  21497-3 0  9996,2 52865  53.2178  28.4252 0001378  81.2320 278.8828 15.08847724 73102,6917.857,95.437,540.675,538.768,0.0
52865.0,STARLINK-4274,PAYLOAD,2023-10-09 12:52:17,15.08839022,0.0001854,53.2192,24.2665,77.9405,282.1795,8.1728e-06,-1.58e-06,0.0,0 STARLINK-4274,1 52865U 22062AM  23282.53631552 -.00000158  00000-0  81728-5 0  9991,2 52865  53.2192  24.2665 0001854  77.9405 282.1795 15.08839022 72758,6917.883,95.438,541.031,538.466,0.0
52865.0,STARLINK-4274,PAYLOAD,2023-10-09 16:03:03,15.08850934,0.0001404,53.2169,23.6716,72.543,287.5716,0.00019327,2.79e-05,0.0,0 STARLINK-4274,1 52865U 22062AM  23282.66878790  .00002790  00000-0  19327-3 0  9999,2 52865  53.2169  23.6716 0001404  72.5430 287.5716 15.08850934 73266,6917.847,95.437,540.683,538.741,0.0
52865.0,STARLINK-4274,PAYLOAD,2023-10-10 12:43:03,15.08853475,0.0001678,53.2185,19.8006,89.3733,270.7451,0.00010849,1.44e-05,0.0,0 STARLINK-4274,1 52865U 22062AM  23283.52990372  .00001440  00000-0  10849-3 0  9997,2 52865  53.2185  19.8006 0001678  89.3733 270.7451 15.08853475 72901,6917.839,95.437,540.865,538.543,0.0
52865.0,STARLINK-4274,PAYLOAD,2023-10-10 14:18:26,15.08865521,0.0001567,53.2188,19.5033,76.6851,283.4316,0.00029591,4.428e-05,0.0,0 STARLINK-4274,1 52865U 22062AM  23283.59613897  .00004428  00000-0  29591-3 0  9991,2 52865  53.2188  19.5033 0001567  76.6851 283.4316 15.08865521 72915,6917.802,95.436,540.751,538.583,0.0
52865.0,STARLINK-4274,PAYLOAD,2023-10-11 12:33:52,15.08832659,0.0001507,53.2191,15.341,89.305,270.8114,-9.0786e-05,-1.732e-05,0.0,0 STARLINK-4274,1 52865U 22062AM  23284.52352437 -.00001732  00000-0 -90786-4 0  9997,2 52865  53.2191  15.3410 0001507  89.3050 270.8114 15.08832659 73540,6917.903,95.438,540.81,538.725,0.0
52865.0,STARLINK-4274,PAYLOAD,2023-10-11 23:41:34,15.08839313,0.0001508,53.2197,13.2604,90.0272,270.0893,-4.6434e-05,-1.027e-05,0.0,0 STARLINK-4274,1 52865U 22062AM  23284.98719980 -.00001027  00000-0 -46434-4 0  9995,2 52865  53.2197  13.2604 0001508  90.0272 270.0893 15.08839313 73612,6917.882,95.438,540.791,538.704,0.0
52865.0,STARLINK-4274,PAYLOAD,2023-10-12 12:24:37,15.08864987,0.0001462,53.2182,10.8831,86.9461,273.1698,6.8803e-05,8.08e-06,0.0,0 STARLINK-4274,1 52865U 22062AM  23285.51709948  .00000808  00000-0  68803-4 0  9996,2 52865  53.2182  10.8831 0001462  86.9461 273.1698 15.08864987 73201,6917.804,95.436,540.68,538.658,0.0
52865.0,STARLINK-4274,PAYLOAD,2023-10-12 15:35:23,15.08869521,0.0001504,53.2191,10.2862,90.0216,270.0948,0.00010455,1.378e-05,0.0,0 STARLINK-4274,1 52865U 22062AM  23285.64957427  .00001378  00000-0  10455-3 0  9999,2 52865  53.2191  10.2862 0001504  90.0216 270.0948 15.08869521 73719,6917.79,95.436,540.696,538.615,0.0
52865.0,STARLINK-4274,PAYLOAD,2023-10-13 12:15:25,15.08841792,0.0001455,53.2178,6.4218,100.8433,259.2723,0.00020442,2.967e-05,0.0,0 STARLINK-4274,1 52865U 22062AM  23286.51071756  .00002967  00000-0  20442-3 0  9990,2 52865  53.2178   6.4218 0001455 100.8433 259.2723 15.08841792 73846,6917.875,95.437,540.746,538.733,0.0
52865.0,STARLINK-4274,PAYLOAD,2023-10-14 10:30:48,15.08858083,0.0001581,53.2171,2.2594,100.8138,259.3032,0.00016311,2.31e-05,0.0,0 STARLINK-4274,1 52865U 22062AM  23287.43806634  .00002310  00000-0  16311-3 0  9995,2 52865  53.2171   2.2594 0001581 100.8138 259.3032 15.08858083 73982,6917.825,95.436,540.784,538.596,0.0
